{
  "type": "FeatureCollection",
  "features": [
    {
      "type": "Feature",
      "properties": {
        "norad_id": 31307,
        "name": "GALAXY 17 (G-17)",
        "group": "intelsat",
        "lat": 2.4285015910733248,
        "lon": 158.66130780847277,
        "alt_km": 35784.371237391606,
        "timestamp": "2025-12-11T10:53:15.553110+00:00",
        "meta_object_name": "GALAXY 17 (G-17)",
        "meta_object_id": "2007-016B",
        "meta_epoch": "2025-12-11T04:52:38.652960",
        "meta_mean_motion": 1.00272515,
        "meta_eccentricity": 0.0005935,
        "meta_inclination": 2.4965,
        "meta_ra_of_asc_node": 82.3008,
        "meta_arg_of_pericenter": 163.5412,
        "meta_mean_anomaly": 182.4997,
        "meta_ephemeris_type": 0,
        "meta_classification_type": "U",
        "meta_norad_cat_id": 31307,
        "meta_element_set_no": 999,
        "meta_rev_at_epoch": 6791,
        "meta_bstar": 0,
        "meta_mean_motion_dot": -2e-06,
        "meta_mean_motion_ddot": 0,
        "tle_line1": "1 31307U 07016B   25345.20322515 -.00000200  00000+0  00000+0 0  9998",
        "tle_line2": "2 31307   2.4965  82.3008 0005935 163.5412 182.4997  1.00272515 67913"
      },
      "geometry": {
        "type": "Point",
        "coordinates": [
          158.66130780847277,
          2.4285015910733248
        ]
      }
    },
    {
      "type": "Feature",
      "properties": {
        "norad_id": 31862,
        "name": "DIRECTV 10",
        "group": "intelsat",
        "lat": 0.00019842564619815254,
        "lon": 140.93779566659626,
        "alt_km": 35785.72588880784,
        "timestamp": "2025-12-11T10:53:15.553122+00:00",
        "meta_object_name": "DIRECTV 10",
        "meta_object_id": "2007-032A",
        "meta_epoch": "2025-12-10T23:19:34.847040",
        "meta_mean_motion": 1.00271412,
        "meta_eccentricity": 3.8e-05,
        "meta_inclination": 0.0021,
        "meta_ra_of_asc_node": 247.4466,
        "meta_arg_of_pericenter": 326.2855,
        "meta_mean_anomaly": 113.3201,
        "meta_ephemeris_type": 0,
        "meta_classification_type": "U",
        "meta_norad_cat_id": 31862,
        "meta_element_set_no": 999,
        "meta_rev_at_epoch": 4370,
        "meta_bstar": 0,
        "meta_mean_motion_dot": -9.8e-07,
        "meta_mean_motion_ddot": 0,
        "tle_line1": "1 31862U 07032A   25344.97193110 -.00000098  00000+0  00000+0 0  9997",
        "tle_line2": "2 31862   0.0021 247.4466 0000380 326.2855 113.3201  1.00271412 43703"
      },
      "geometry": {
        "type": "Point",
        "coordinates": [
          140.93779566659626,
          0.00019842564619815254
        ]
      }
    },
    {
      "type": "Feature",
      "properties": {
        "norad_id": 32253,
        "name": "INTELSAT 11 (IS-11)",
        "group": "intelsat",
        "lat": 1.734687963779239,
        "lon": 114.9514718795079,
        "alt_km": 36157.69362009212,
        "timestamp": "2025-12-11T10:53:15.553135+00:00",
        "meta_object_name": "INTELSAT 11 (IS-11)",
        "meta_object_id": "2007-044B",
        "meta_epoch": "2025-12-11T04:35:38.717376",
        "meta_mean_motion": 0.99048278,
        "meta_eccentricity": 0.000898,
        "meta_inclination": 3.0765,
        "meta_ra_of_asc_node": 80.9929,
        "meta_arg_of_pericenter": 165.3171,
        "meta_mean_anomaly": 135.252,
        "meta_ephemeris_type": 0,
        "meta_classification_type": "U",
        "meta_norad_cat_id": 32253,
        "meta_element_set_no": 999,
        "meta_rev_at_epoch": 6658,
        "meta_bstar": 0,
        "meta_mean_motion_dot": 8e-07,
        "meta_mean_motion_ddot": 0,
        "tle_line1": "1 32253U 07044B   25345.19142034  .00000080  00000+0  00000+0 0  9999",
        "tle_line2": "2 32253   3.0765  80.9929 0008980 165.3171 135.2520  0.99048278 66584"
      },
      "geometry": {
        "type": "Point",
        "coordinates": [
          114.9514718795079,
          1.734687963779239
        ]
      }
    },
    {
      "type": "Feature",
      "properties": {
        "norad_id": 32388,
        "name": "HORIZONS-2",
        "group": "intelsat",
        "lat": 2.113073186122049,
        "lon": 169.8787218900938,
        "alt_km": 35790.49338558456,
        "timestamp": "2025-12-11T10:53:15.553147+00:00",
        "meta_object_name": "HORIZONS-2",
        "meta_object_id": "2007-063B",
        "meta_epoch": "2025-12-11T02:53:15.825120",
        "meta_mean_motion": 1.00270185,
        "meta_eccentricity": 0.0004958,
        "meta_inclination": 2.1176,
        "meta_ra_of_asc_node": 82.9766,
        "meta_arg_of_pericenter": 188.584,
        "meta_mean_anomaly": 138.0519,
        "meta_ephemeris_type": 0,
        "meta_classification_type": "U",
        "meta_norad_cat_id": 32388,
        "meta_element_set_no": 999,
        "meta_rev_at_epoch": 6592,
        "meta_bstar": 0,
        "meta_mean_motion_dot": -2.48e-06,
        "meta_mean_motion_ddot": 0,
        "tle_line1": "1 32388U 07063B   25345.12032205 -.00000248  00000+0  00000+0 0  9997",
        "tle_line2": "2 32388   2.1176  82.9766 0004958 188.5840 138.0519  1.00270185 65924"
      },
      "geometry": {
        "type": "Point",
        "coordinates": [
          169.8787218900938,
          2.113073186122049
        ]
      }
    },
    {
      "type": "Feature",
      "properties": {
        "norad_id": 32729,
        "name": "DIRECTV 11",
        "group": "intelsat",
        "lat": 0.0010625121197271258,
        "lon": 144.52081368699316,
        "alt_km": 35785.21983140309,
        "timestamp": "2025-12-11T10:53:15.553159+00:00",
        "meta_object_name": "DIRECTV 11",
        "meta_object_id": "2008-013A",
        "meta_epoch": "2025-12-10T19:55:09.427872",
        "meta_mean_motion": 1.00269537,
        "meta_eccentricity": 4.84e-05,
        "meta_inclination": 0.0266,
        "meta_ra_of_asc_node": 165.676,
        "meta_arg_of_pericenter": 20.8459,
        "meta_mean_anomaly": 92.8714,
        "meta_ephemeris_type": 0,
        "meta_classification_type": "U",
        "meta_norad_cat_id": 32729,
        "meta_element_set_no": 999,
        "meta_rev_at_epoch": 4370,
        "meta_bstar": 0,
        "meta_mean_motion_dot": -1.2e-06,
        "meta_mean_motion_ddot": 0,
        "tle_line1": "1 32729U 08013A   25344.82997023 -.00000120  00000+0  00000+0 0  9995",
        "tle_line2": "2 32729   0.0266 165.6760 0000484  20.8459  92.8714  1.00269537 43702"
      },
      "geometry": {
        "type": "Point",
        "coordinates": [
          144.52081368699316,
          0.0010625121197271258
        ]
      }
    },
    {
      "type": "Feature",
      "properties": {
        "norad_id": 32951,
        "name": "GALAXY 18 (G-18)",
        "group": "intelsat",
        "lat": 0.01296656514163329,
        "lon": 120.70454016154962,
        "alt_km": 35796.2251304202,
        "timestamp": "2025-12-11T10:53:15.553171+00:00",
        "meta_object_name": "GALAXY 18 (G-18)",
        "meta_object_id": "2008-024A",
        "meta_epoch": "2025-12-10T23:13:50.397024",
        "meta_mean_motion": 1.00273115,
        "meta_eccentricity": 0.0003109,
        "meta_inclination": 0.018,
        "meta_ra_of_asc_node": 314.8239,
        "meta_arg_of_pericenter": 309.1849,
        "meta_mean_anomaly": 41.3852,
        "meta_ephemeris_type": 0,
        "meta_classification_type": "U",
        "meta_norad_cat_id": 32951,
        "meta_element_set_no": 999,
        "meta_rev_at_epoch": 4396,
        "meta_bstar": 0,
        "meta_mean_motion_dot": 3e-07,
        "meta_mean_motion_ddot": 0,
        "tle_line1": "1 32951U 08024A   25344.96794441  .00000030  00000+0  00000+0 0  9997",
        "tle_line2": "2 32951   0.0180 314.8239 0003109 309.1849  41.3852  1.00273115 43963"
      },
      "geometry": {
        "type": "Point",
        "coordinates": [
          120.70454016154962,
          0.01296656514163329
        ]
      }
    },
    {
      "type": "Feature",
      "properties": {
        "norad_id": 33153,
        "name": "INTELSAT 25 (IS-25)",
        "group": "intelsat",
        "lat": 1.7021586990541424,
        "lon": -147.80915633749856,
        "alt_km": 35774.07241054708,
        "timestamp": "2025-12-11T10:53:15.553183+00:00",
        "meta_object_name": "INTELSAT 25 (IS-25)",
        "meta_object_id": "2008-034A",
        "meta_epoch": "2025-12-11T03:09:09.155808",
        "meta_mean_motion": 1.00270103,
        "meta_eccentricity": 0.0005334,
        "meta_inclination": 2.2239,
        "meta_ra_of_asc_node": 82.6668,
        "meta_arg_of_pericenter": 186.6267,
        "meta_mean_anomaly": 186.5862,
        "meta_ephemeris_type": 0,
        "meta_classification_type": "U",
        "meta_norad_cat_id": 33153,
        "meta_element_set_no": 999,
        "meta_rev_at_epoch": 6381,
        "meta_bstar": 0,
        "meta_mean_motion_dot": -2.18e-06,
        "meta_mean_motion_ddot": 0,
        "tle_line1": "1 33153U 08034A   25345.13135597 -.00000218  00000+0  00000+0 0  9993",
        "tle_line2": "2 33153   2.2239  82.6668 0005334 186.6267 186.5862  1.00270103 63810"
      },
      "geometry": {
        "type": "Point",
        "coordinates": [
          -147.80915633749856,
          1.7021586990541424
        ]
      }
    }
  ]
}